{"type": "FeatureCollection", "features": [{"type": "Feature", "properties": {"norad_id": 26766, "name": "INTELSAT 10 (IS-10)", "group": "intelsat", "lat": 7.28647807273758, "lon": -176.5326213771844, "alt_km": 36126.89972647412, "timestamp": "2025-12-03T19:33:06.646913+00:00", "meta": {"OBJECT_NAME": "INTELSAT 10 (IS-10)", "OBJECT_ID": "2001-019A", "EPOCH": "2025-12-03T11:53:38.524992", "MEAN_MOTION": 0.99078102, "ECCENTRICITY": 0.0007771, "INCLINATION": 8.6063, "RA_OF_ASC_NODE": 61.2471, "ARG_OF_PERICENTER": 218.7876, "MEAN_ANOMALY": 149.4282, "EPHEMERIS_TYPE": 0, "CLASSIFICATION_TYPE": "U", "NORAD_CAT_ID": 26766, "ELEMENT_SET_NO": 999, "REV_AT_EPOCH": 4364, "BSTAR": 0, "MEAN_MOTION_DOT": -1.56e-06, "MEAN_MOTION_DDOT": 0}, "tle": {"line1": "1 26766U 01019A   25337.49558478 -.00000156  00000+0  00000+0 0  9999", "line2": "2 26766   8.6063  61.2471 0007771 218.7876 149.4282  0.99078102 43647"}}, "geometry": {"type": "Point", "coordinates": [-176.5326213771844, 7.28647807273758]}}, {"type": "Feature", "properties": {"norad_id": 26900, "name": "INTELSAT 902 (IS-902)", "group": "intelsat", "lat": -4.966373839823795, "lon": -44.03940504591809, "alt_km": 35780.14627875603, "timestamp": "2025-12-03T19:33:06.646937+00:00", "meta": {"OBJECT_NAME": "INTELSAT 902 (IS-902)", "OBJECT_ID": "2001-039A", "EPOCH": "2025-12-01T16:59:59.311968", "MEAN_MOTION": 1.00270327, "ECCENTRICITY": 0.00043097, "INCLINATION": 5.6187, "RA_OF_ASC_NODE": 74.2002, "ARG_OF_PERICENTER": 175.119, "MEAN_ANOMALY": 26.3816, "EPHEMERIS_TYPE": 0, "CLASSIFICATION_TYPE": "U", "NORAD_CAT_ID": 26900, "ELEMENT_SET_NO": 999, "REV_AT_EPOCH": 8871, "BSTAR": 0, "MEAN_MOTION_DOT": -2.63e-06, "MEAN_MOTION_DDOT": 0}, "tle": {"line1": "1 26900U 01039A   25335.70832537 -.00000263  00000+0  00000+0 0  9993", "line2": "2 26900   5.6187  74.2002 0004309 175.1190  26.3816  1.00270327 88713"}}, "geometry": {"type": "Point", "coordinates": [-44.03940504591809, -4.966373839823795]}}, {"type": "Feature", "properties": {"norad_id": 27380, "name": "INTELSAT 904 (IS-904)", "group": "intelsat", "lat": -6.3842923448337565, "lon": -25.362863767461615, "alt_km": 35784.57258861459, "timestamp": "2025-12-03T19:33:06.646953+00:00", "meta": {"OBJECT_NAME": "INTELSAT 904 (IS-904)", "OBJECT_ID": "2002-007A", "EPOCH": "2025-12-03T03:19:57.879840", "MEAN_MOTION": 1.00269372, "ECCENTRICITY": 0.00015814, "INCLINATION": 6.4293, "RA_OF_ASC_NODE": 71.5412, "ARG_OF_PERICENTER": 200.7188, "MEAN_ANOMALY": 178.4698, "EPHEMERIS_TYPE": 0, "CLASSIFICATION_TYPE": "U", "NORAD_CAT_ID": 27380, "ELEMENT_SET_NO": 999, "REV_AT_EPOCH": 4980, "BSTAR": 0, "MEAN_MOTION_DOT": -2.1e-06, "MEAN_MOTION_DDOT": 0}, "tle": {"line1": "1 27380U 02007A   25337.13886435 -.00000210  00000+0  00000+0 0  9999", "line2": "2 27380   6.4293  71.5412 0001581 200.7188 178.4698  1.00269372 49801"}}, "geometry": {"type": "Point", "coordinates": [-25.362863767461615, -6.3842923448337565]}}, {"type": "Feature", "properties": {"norad_id": 27426, "name": "DIRECTV 5 (TEMPO 1)", "group": "intelsat", "lat": 0.10649750890049167, "lon": -103.96823362731324, "alt_km": 35770.54711445453, "timestamp": "2025-12-03T19:33:06.646966+00:00", "meta": {"OBJECT_NAME": "DIRECTV 5 (TEMPO 1)", "OBJECT_ID": "2002-023A", "EPOCH": "2025-12-03T09:48:28.408032", "MEAN_MOTION": 1.00271174, "ECCENTRICITY": 0.0003776, "INCLINATION": 4.3765, "RA_OF_ASC_NODE": 77.7618, "ARG_OF_PERICENTER": 189.4718, "MEAN_ANOMALY": 202.2592, "EPHEMERIS_TYPE": 0, "CLASSIFICATION_TYPE": "U", "NORAD_CAT_ID": 27426, "ELEMENT_SET_NO": 999, "REV_AT_EPOCH": 8616, "BSTAR": 0, "MEAN_MOTION_DOT": -4e-07, "MEAN_MOTION_DDOT": 0}, "tle": {"line1": "1 27426U 02023A   25337.40866213 -.00000040  00000+0  00000+0 0  9991", "line2": "2 27426   4.3765  77.7618 0003776 189.4718 202.2592  1.00271174 86161"}}, "geometry": {"type": "Point", "coordinates": [-103.96823362731324, 0.10649750890049167]}}, {"type": "Feature", "properties": {"norad_id": 27438, "name": "INTELSAT 905 (IS-905)", "group": "intelsat", "lat": 2.436956775851909, "lon": -130.9175624734862, "alt_km": 35774.09523989121, "timestamp": "2025-12-03T19:33:06.646979+00:00", "meta": {"OBJECT_NAME": "INTELSAT 905 (IS-905)", "OBJECT_ID": "2002-027A", "EPOCH": "2025-12-03T09:40:44.148864", "MEAN_MOTION": 1.00273288, "ECCENTRICITY": 0.000313, "INCLINATION": 6.2606, "RA_OF_ASC_NODE": 72.1621, "ARG_OF_PERICENTER": 189.1417, "MEAN_ANOMALY": 179.1858, "EPHEMERIS_TYPE": 0, "CLASSIFICATION_TYPE": "U", "NORAD_CAT_ID": 27438, "ELEMENT_SET_NO": 999, "REV_AT_EPOCH": 4940, "BSTAR": 0, "MEAN_MOTION_DOT": 1.09e-06, "MEAN_MOTION_DDOT": 0}, "tle": {"line1": "1 27438U 02027A   25337.40328876  .00000109  00000+0  00000+0 0  9991", "line2": "2 27438   6.2606  72.1621 0003130 189.1417 179.1858  1.00273288 49400"}}, "geometry": {"type": "Point", "coordinates": [-130.9175624734862, 2.436956775851909]}}, {"type": "Feature", "properties": {"norad_id": 27445, "name": "GALAXY 3C (G-3C)", "group": "intelsat", "lat": -0.6240831547108241, "lon": -88.70369222208652, "alt_km": 35786.848588642, "timestamp": "2025-12-03T19:33:06.646991+00:00", "meta": {"OBJECT_NAME": "GALAXY 3C (G-3C)", "OBJECT_ID": "2002-030A", "EPOCH": "2025-12-03T09:52:50.491200", "MEAN_MOTION": 1.00270115, "ECCENTRICITY": 0.0001284, "INCLINATION": 3.2391, "RA_OF_ASC_NODE": 80.6023, "ARG_OF_PERICENTER": 98.3929, "MEAN_ANOMALY": 306.8593, "EPHEMERIS_TYPE": 0, "CLASSIFICATION_TYPE": "U", "NORAD_CAT_ID": 27445, "ELEMENT_SET_NO": 999, "REV_AT_EPOCH": 4453, "BSTAR": 0, "MEAN_MOTION_DOT": -1.35e-06, "MEAN_MOTION_DDOT": 0}, "tle": {"line1": "1 27445U 02030A   25337.41169550 -.00000135  00000+0  00000+0 0  9996", "line2": "2 27445   3.2391  80.6023 0001284  98.3929 306.8593  1.00270115 44533"}}, "geometry": {"type": "Point", "coordinates": [-88.70369222208652, -0.6240831547108241]}}, {"type": "Feature", "properties": {"norad_id": 27513, "name": "INTELSAT 906 (IS-906)", "group": "intelsat", "lat": -0.4374529029076372, "lon": 70.33838389953917, "alt_km": 35810.49281007406, "timestamp": "2025-12-03T19:33:06.647004+00:00", "meta": {"OBJECT_NAME": "INTELSAT 906 (IS-906)", "OBJECT_ID": "2002-041A", "EPOCH": "2025-12-03T08:55:25.991040", "MEAN_MOTION": 1.00273124, "ECCENTRICITY": 0.0006118, "INCLINATION": 5.3053, "RA_OF_ASC_NODE": 75.3426, "ARG_OF_PERICENTER": 192.3717, "MEAN_ANOMALY": 2.7424, "EPHEMERIS_TYPE": 0, "CLASSIFICATION_TYPE": "U", "NORAD_CAT_ID": 27513, "ELEMENT_SET_NO": 999, "REV_AT_EPOCH": 8506, "BSTAR": 0, "MEAN_MOTION_DOT": 2.9e-07, "MEAN_MOTION_DDOT": 0}, "tle": {"line1": "1 27513U 02041A   25337.37182860  .00000029  00000+0  00000+0 0  9999", "line2": "2 27513   5.3053  75.3426 0006118 192.3717   2.7424  1.00273124 85067"}}, "geometry": {"type": "Point", "coordinates": [70.33838389953917, -0.4374529029076372]}}, {"type": "Feature", "properties": {"norad_id": 27954, "name": "GALAXY 13 (HORIZONS-1)", "group": "intelsat", "lat": 0.6774629701190005, "lon": -143.85938879821182, "alt_km": 35778.23526122243, "timestamp": "2025-12-03T19:33:06.647016+00:00", "meta": {"OBJECT_NAME": "GALAXY 13 (HORIZONS-1)", "OBJECT_ID": "2003-044A", "EPOCH": "2025-12-03T11:00:11.280096", "MEAN_MOTION": 1.0027255, "ECCENTRICITY": 0.0002077, "INCLINATION": 0.9116, "RA_OF_ASC_NODE": 86.5866, "ARG_OF_PERICENTER": 161.0801, "MEAN_ANOMALY": 199.9225, "EPHEMERIS_TYPE": 0, "CLASSIFICATION_TYPE": "U", "NORAD_CAT_ID": 27954, "ELEMENT_SET_NO": 999, "REV_AT_EPOCH": 4461, "BSTAR": 0, "MEAN_MOTION_DOT": 1.51e-06, "MEAN_MOTION_DDOT": 0}, "tle": {"line1": "1 27954U 03044A   25337.45846389  .00000151  00000+0  00000+0 0  9990", "line2": "2 27954   0.9116  86.5866 0002077 161.0801 199.9225  1.00272550 44612"}}, "geometry": {"type": "Point", "coordinates": [-143.85938879821182, 0.6774629701190005]}}, {"type": "Feature", "properties": {"norad_id": 28358, "name": "INTELSAT 10-02", "group": "intelsat", "lat": -0.0041565693374961, "lon": 5.171825503005639, "alt_km": 35786.47134910645, "timestamp": "2025-12-03T19:33:06.647042+00:00", "meta": {"OBJECT_NAME": "INTELSAT 10-02", "OBJECT_ID": "2004-022A", "EPOCH": "2025-12-03T08:51:10.514880", "MEAN_MOTION": 1.00270156, "ECCENTRICITY": 0.0001042, "INCLINATION": 0.0367, "RA_OF_ASC_NODE": 79.1202, "ARG_OF_PERICENTER": 196.9462, "MEAN_ANOMALY": 288.1968, "EPHEMERIS_TYPE": 0, "CLASSIFICATION_TYPE": "U", "NORAD_CAT_ID": 28358, "ELEMENT_SET_NO": 999, "REV_AT_EPOCH": 7859, "BSTAR": 0, "MEAN_MOTION_DOT": 8e-08, "MEAN_MOTION_DDOT": 0}, "tle": {"line1": "1 28358U 04022A   25337.36887170  .00000008  00000+0  00000+0 0  9990", "line2": "2 28358   0.0367  79.1202 0001042 196.9462 288.1968  1.00270156 78592"}}, "geometry": {"type": "Point", "coordinates": [5.171825503005639, -0.0041565693374961]}}, {"type": "Feature", "properties": {"norad_id": 28626, "name": "XM-3 (RHYTHM)", "group": "intelsat", "lat": 0.13500717026373, "lon": 162.80541633380156, "alt_km": 36162.95276120351, "timestamp": "2025-12-03T19:33:06.647087+00:00", "meta": {"OBJECT_NAME": "XM-3 (RHYTHM)", "OBJECT_ID": "2005-008A", "EPOCH": "2025-12-02T19:08:10.315968", "MEAN_MOTION": 0.98955046, "ECCENTRICITY": 8.644e-05, "INCLINATION": 0.1467, "RA_OF_ASC_NODE": 80.743, "ARG_OF_PERICENTER": 265.9206, "MEAN_ANOMALY": 173.7506, "EPHEMERIS_TYPE": 0, "CLASSIFICATION_TYPE": "U", "NORAD_CAT_ID": 28626, "ELEMENT_SET_NO": 999, "REV_AT_EPOCH": 4065, "BSTAR": 0, "MEAN_MOTION_DOT": -2.32e-06, "MEAN_MOTION_DDOT": 0}, "tle": {"line1": "1 28626U 05008A   25336.79734162 -.00000232  00000+0  00000+0 0  9991", "line2": "2 28626   0.1467  80.7430 0000864 265.9206 173.7506  0.98955046 40654"}}, "geometry": {"type": "Point", "coordinates": [162.80541633380156, 0.13500717026373]}}]}